[{"OBJECT_NAME":"ONEWEB-0215","OBJECT_ID":"2021-045AK","EPOCH":"2025-12-10T06:06:01.876896","MEAN_MOTION":13.15549644,"ECCENTRICITY":0.0002342,"INCLINATION":87.9006,"RA_OF_ASC_NODE":296.8643,"ARG_OF_PERICENTER":66.2839,"MEAN_ANOMALY":293.8537,"EPHEMERIS_TYPE":0,"CLASSIFICATION_TYPE":"U","NORAD_CAT_ID":48800,"ELEMENT_SET_NO":999,"REV_AT_EPOCH":21945,"BSTAR":0.00040834797,"MEAN_MOTION_DOT":1.67e-6,"MEAN_MOTION_DDOT":0},{"OBJECT_NAME":"ONEWEB-0216","OBJECT_ID":"2021-045AL","EPOCH":"2025-12-10T06:19:43.667904","MEAN_MOTION":13.15549234,"ECCENTRICITY":0.00019912,"INCLINATION":87.8991,"RA_OF_ASC_NODE":296.8935,"ARG_OF_PERICENTER":82.927,"MEAN_ANOMALY":277.2087,"EPHEMERIS_TYPE":0,"CLASSIFICATION_TYPE":"U","NORAD_CAT_ID":48801,"ELEMENT_SET_NO":999,"REV_AT_EPOCH":21946,"BSTAR":0.00029559108,"MEAN_MOTION_DOT":1.24e-6,"MEAN_MOTION_DDOT":0},{"OBJECT_NAME":"ONEWEB-0239","OBJECT_ID":"2021-045AM","EPOCH":"2025-12-10T06:26:33.262656","MEAN_MOTION":13.1555019,"ECCENTRICITY":0.00022334,"INCLINATION":87.899,"RA_OF_ASC_NODE":296.9072,"ARG_OF_PERICENTER":58.7716,"MEAN_ANOMALY":301.3633,"EPHEMERIS_TYPE":0,"CLASSIFICATION_TYPE":"U","NORAD_CAT_ID":48802,"ELEMENT_SET_NO":999,"REV_AT_EPOCH":21950,"BSTAR":0.00016809839,"MEAN_MOTION_DOT":7.6e-7,"MEAN_MOTION_DDOT":0},{"OBJECT_NAME":"ONEWEB-0249","OBJECT_ID":"2021-060A","EPOCH":"2025-12-10T06:36:56.434752","MEAN_MOTION":13.16594989,"ECCENTRICITY":0.00018187,"INCLINATION":87.9043,"RA_OF_ASC_NODE":266.395,"ARG_OF_PERICENTER":71.7132,"MEAN_ANOMALY":288.4196,"EPHEMERIS_TYPE":0,"CLASSIFICATION_TYPE":"U","NORAD_CAT_ID":48967,"ELEMENT_SET_NO":999,"REV_AT_EPOCH":21475,"BSTAR":-5.6326134e-5,"MEAN_MOTION_DOT":-9.0e-8,"MEAN_MOTION_DDOT":0},{"OBJECT_NAME":"ONEWEB-0250","OBJECT_ID":"2021-060B","EPOCH":"2025-12-10T06:14:16.707840","MEAN_MOTION":13.25820188,"ECCENTRICITY":0.00014394,"INCLINATION":87.9041,"RA_OF_ASC_NODE":264.7723,"ARG_OF_PERICENTER":39.6407,"MEAN_ANOMALY":320.4835,"EPHEMERIS_TYPE":0,"CLASSIFICATION_TYPE":"U","NORAD_CAT_ID":48968,"ELEMENT_SET_NO":999,"REV_AT_EPOCH":21518,"BSTAR":0.00019987286,"MEAN_MOTION_DOT":1.01e-6,"MEAN_MOTION_DDOT":0},{"OBJECT_NAME":"ONEWEB-0252","OBJECT_ID":"2021-060D","EPOCH":"2025-12-10T07:22:31.689408","MEAN_MOTION":13.16593433,"ECCENTRICITY":0.00018992,"INCLINATION":87.9041,"RA_OF_ASC_NODE":266.382,"ARG_OF_PERICENTER":79.6384,"MEAN_ANOMALY":280.4961,"EPHEMERIS_TYPE":0,"CLASSIFICATION_TYPE":"U","NORAD_CAT_ID":48970,"ELEMENT_SET_NO":999,"REV_AT_EPOCH":21480,"BSTAR":0.00041431203,"MEAN_MOTION_DOT":1.71e-6,"MEAN_MOTION_DDOT":0},{"OBJECT_NAME":"ONEWEB-0253","OBJECT_ID":"2021-060E","EPOCH":"2025-12-10T07:06:34.046496","MEAN_MOTION":13.16596616,"ECCENTRICITY":0.00019155,"INCLINATION":87.9041,"RA_OF_ASC_NODE":266.3891,"ARG_OF_PERICENTER":69.8579,"MEAN_ANOMALY":290.2758,"EPHEMERIS_TYPE":0,"CLASSIFICATION_TYPE":"U","NORAD_CAT_ID":48971,"ELEMENT_SET_NO":999,"REV_AT_EPOCH":21473,"BSTAR":0.00014169449,"MEAN_MOTION_DOT":6.7e-7,"MEAN_MOTION_DDOT":0},{"OBJECT_NAME":"ONEWEB-0254","OBJECT_ID":"2021-060F","EPOCH":"2025-12-10T07:20:14.474112","MEAN_MOTION":13.16596802,"ECCENTRICITY":0.00019427,"INCLINATION":87.9051,"RA_OF_ASC_NODE":266.3783,"ARG_OF_PERICENTER":65.5171,"MEAN_ANOMALY":294.6162,"EPHEMERIS_TYPE":0,"CLASSIFICATION_TYPE":"U","NORAD_CAT_ID":48972,"ELEMENT_SET_NO":999,"REV_AT_EPOCH":21473,"BSTAR":0.00029787226,"MEAN_MOTION_DOT":1.27e-6,"MEAN_MOTION_DDOT":0},{"OBJECT_NAME":"ONEWEB-0255","OBJECT_ID":"2021-060G","EPOCH":"2025-12-10T06:25:31.370880","MEAN_MOTION":13.16595126,"ECCENTRICITY":0.00018715,"INCLINATION":87.9039,"RA_OF_ASC_NODE":266.402,"ARG_OF_PERICENTER":68.4853,"MEAN_ANOMALY":291.6477,"EPHEMERIS_TYPE":0,"CLASSIFICATION_TYPE":"U","NORAD_CAT_ID":48973,"ELEMENT_SET_NO":999,"REV_AT_EPOCH":21480,"BSTAR":0.00011700412,"MEAN_MOTION_DOT":5.8e-7,"MEAN_MOTION_DDOT":0},{"OBJECT_NAME":"ONEWEB-0256","OBJECT_ID":"2021-060H","EPOCH":"2025-12-10T05:13:44.078592","MEAN_MOTION":13.16594479,"ECCENTRICITY":0.00017358,"INCLINATION":87.9035,"RA_OF_ASC_NODE":266.4204,"ARG_OF_PERICENTER":78.8268,"MEAN_ANOMALY":281.3058,"EPHEMERIS_TYPE":0,"CLASSIFICATION_TYPE":"U","NORAD_CAT_ID":48974,"ELEMENT_SET_NO":999,"REV_AT_EPOCH":21476,"BSTAR":0.00036171543,"MEAN_MOTION_DOT":1.51e-6,"MEAN_MOTION_DDOT":0},{"OBJECT_NAME":"ONEWEB-0257","OBJECT_ID":"2021-060J","EPOCH":"2025-12-10T06:00:27.520992","MEAN_MOTION":13.16595128,"ECCENTRICITY":0.00018871,"INCLINATION":87.9046,"RA_OF_ASC_NODE":266.3921,"ARG_OF_PERICENTER":72.8922,"MEAN_ANOMALY":287.2416,"EPHEMERIS_TYPE":0,"CLASSIFICATION_TYPE":"U","NORAD_CAT_ID":48975,"ELEMENT_SET_NO":999,"REV_AT_EPOCH":21472,"BSTAR":0.00037247465,"MEAN_MOTION_DOT":1.55e-6,"MEAN_MOTION_DDOT":0},{"OBJECT_NAME":"ONEWEB-0258","OBJECT_ID":"2021-060K","EPOCH":"2025-12-10T06:02:44.557440","MEAN_MOTION":13.16595363,"ECCENTRICITY":0.00016413,"INCLINATION":87.9041,"RA_OF_ASC_NODE":266.4071,"ARG_OF_PERICENTER":72.3012,"MEAN_ANOMALY":287.8298,"EPHEMERIS_TYPE":0,"CLASSIFICATION_TYPE":"U","NORAD_CAT_ID":48976,"ELEMENT_SET_NO":999,"REV_AT_EPOCH":21473,"BSTAR":0.0003717189,"MEAN_MOTION_DOT":1.55e-6,"MEAN_MOTION_DDOT":0},{"OBJECT_NAME":"ONEWEB-0259","OBJECT_ID":"2021-060L","EPOCH":"2025-12-10T05:53:37.209984","MEAN_MOTION":13.16595026,"ECCENTRICITY":0.00018017,"INCLINATION":87.9047,"RA_OF_ASC_NODE":266.4023,"ARG_OF_PERICENTER":69.372,"MEAN_ANOMALY":290.7604,"EPHEMERIS_TYPE":0,"CLASSIFICATION_TYPE":"U","NORAD_CAT_ID":48977,"ELEMENT_SET_NO":999,"REV_AT_EPOCH":21476,"BSTAR":0.00032501695,"MEAN_MOTION_DOT":1.37e-6,"MEAN_MOTION_DDOT":0},{"OBJECT_NAME":"ONEWEB-0260","OBJECT_ID":"2021-060M","EPOCH":"2025-12-10T07:30:31.751136","MEAN_MOTION":13.16594399,"ECCENTRICITY":0.00019375,"INCLINATION":87.9035,"RA_OF_ASC_NODE":266.4027,"ARG_OF_PERICENTER":88.7549,"MEAN_ANOMALY":271.3804,"EPHEMERIS_TYPE":0,"CLASSIFICATION_TYPE":"U","NORAD_CAT_ID":48978,"ELEMENT_SET_NO":999,"REV_AT_EPOCH":21475,"BSTAR":0.00013225717,"MEAN_MOTION_DOT":6.3e-7,"MEAN_MOTION_DDOT":0},{"OBJECT_NAME":"ONEWEB-0261","OBJECT_ID":"2021-060N","EPOCH":"2025-12-10T06:47:11.723712","MEAN_MOTION":13.16593005,"ECCENTRICITY":0.00021115,"INCLINATION":87.9035,"RA_OF_ASC_NODE":266.4108,"ARG_OF_PERICENTER":70.9584,"MEAN_ANOMALY":289.1776,"EPHEMERIS_TYPE":0,"CLASSIFICATION_TYPE":"U","NORAD_CAT_ID":48979,"ELEMENT_SET_NO":999,"REV_AT_EPOCH":21480,"BSTAR":-4.7521803e-5,"MEAN_MOTION_DOT":-5.0e-8,"MEAN_MOTION_DDOT":0},{"OBJECT_NAME":"ONEWEB-0262","OBJECT_ID":"2021-060P","EPOCH":"2025-12-10T06:18:41.911776","MEAN_MOTION":13.16595425,"ECCENTRICITY":0.00017159,"INCLINATION":87.9045,"RA_OF_ASC_NODE":266.388,"ARG_OF_PERICENTER":63.6933,"MEAN_ANOMALY":296.4374,"EPHEMERIS_TYPE":0,"CLASSIFICATION_TYPE":"U","NORAD_CAT_ID":48980,"ELEMENT_SET_NO":999,"REV_AT_EPOCH":21476,"BSTAR":0.00012883805,"MEAN_MOTION_DOT":6.2e-7,"MEAN_MOTION_DDOT":0}]
