ONEWEB-0215             
1 48800U 21045AK  25344.25418839  .00000167  00000+0  40835-3 0  9996
2 48800  87.9006 296.8643 0002342  66.2839 293.8537 13.15549644219455
ONEWEB-0216             
1 48801U 21045AL  25344.26369986  .00000124  00000+0  29559-3 0  9999
2 48801  87.8991 296.8935 0001991  82.9270 277.2087 13.15549234219467
ONEWEB-0239             
1 48802U 21045AM  25344.26844054  .00000076  00000+0  16810-3 0  9996
2 48802  87.8990 296.9072 0002233  58.7716 301.3633 13.15550190219500
ONEWEB-0249             
1 48967U 21060A   25344.27565318 -.00000009  00000+0 -56326-4 0  9994
2 48967  87.9043 266.3950 0001818  71.7132 288.4196 13.16594989214759
ONEWEB-0250             
1 48968U 21060B   25344.25991560  .00000101  00000+0  19987-3 0  9997
2 48968  87.9041 264.7723 0001439  39.6407 320.4835 13.25820188215183
ONEWEB-0252             
1 48970U 21060D   25344.30731122  .00000171  00000+0  41431-3 0  9998
2 48970  87.9041 266.3820 0001899  79.6384 280.4961 13.16593433214803
ONEWEB-0253             
1 48971U 21060E   25344.29622739  .00000067  00000+0  14169-3 0  9992
2 48971  87.9041 266.3891 0001915  69.8579 290.2758 13.16596616214739
ONEWEB-0254             
1 48972U 21060F   25344.30572308  .00000127  00000+0  29787-3 0  9990
2 48972  87.9051 266.3783 0001942  65.5171 294.6162 13.16596802214736
ONEWEB-0255             
1 48973U 21060G   25344.26772420  .00000058  00000+0  11700-3 0  9992
2 48973  87.9039 266.4020 0001871  68.4853 291.6477 13.16595126214800
ONEWEB-0256             
1 48974U 21060H   25344.21787128  .00000151  00000+0  36172-3 0  9993
2 48974  87.9035 266.4204 0001735  78.8268 281.3058 13.16594479214761
ONEWEB-0257             
1 48975U 21060J   25344.25031853  .00000155  00000+0  37247-3 0  9993
2 48975  87.9046 266.3921 0001887  72.8922 287.2416 13.16595128214729
ONEWEB-0258             
1 48976U 21060K   25344.25190460  .00000155  00000+0  37172-3 0  9991
2 48976  87.9041 266.4071 0001641  72.3012 287.8298 13.16595363214731
ONEWEB-0259             
1 48977U 21060L   25344.24556956  .00000137  00000+0  32502-3 0  9999
2 48977  87.9047 266.4023 0001801  69.3720 290.7604 13.16595026214768
ONEWEB-0260             
1 48978U 21060M   25344.31286749  .00000063  00000+0  13226-3 0  9998
2 48978  87.9035 266.4027 0001937  88.7549 271.3804 13.16594399214752
ONEWEB-0261             
1 48979U 21060N   25344.28277458 -.00000005  00000+0 -47522-4 0  9997
2 48979  87.9035 266.4108 0002111  70.9584 289.1776 13.16593005214804
ONEWEB-0262             
1 48980U 21060P   25344.26298509  .00000062  00000+0  12884-3 0  9990
2 48980  87.9045 266.3880 0001715  63.6933 296.4374 13.16595425214767
